OBJECT_NAME,OBJECT_ID,EPOCH,MEAN_MOTION,ECCENTRICITY,INCLINATION,RA_OF_ASC_NODE,ARG_OF_PERICENTER,MEAN_ANOMALY,EPHEMERIS_TYPE,CLASSIFICATION_TYPE,NORAD_CAT_ID,ELEMENT_SET_NO,REV_AT_EPOCH,BSTAR,MEAN_MOTION_DOT,MEAN_MOTION_DDOT
DMSP 5D-3 F16 (USA 172),2003-048A,2026-06-11T17:14:11.721408,14.14482632,.0007478,98.9891,186.5102,154.3447,268.3104,0,U,28054,999,16871,.21342E-4,-.4E-7,0
METEOSAT-9 (MSG-2),2005-049B,2026-06-10T20:21:02.721024,1.00269523,.0001608,9.3464,54.2281,348.0762,207.8226,0,U,28912,999,693,0,.136E-5,0
DMSP 5D-3 F17 (USA 191),2006-050A,2026-06-11T15:42:03.986784,14.14992259,.0011294,98.7378,169.3375,73.5160,286.7254,0,U,29522,999,1164,.33349E-4,.21E-6,0
FENGYUN 3A,2008-026A,2026-06-11T16:34:25.728384,14.19570066,.0009361,98.6883,103.6266,138.1818,222.0075,0,U,32958,999,93462,.41615E-4,.44E-6,0
GOES 14,2009-033A,2026-06-11T17:21:24.176736,1.00112681,.0001793,1.6751,83.1068,8.1826,214.0974,0,U,35491,999,653,0,-.254E-5,0
DMSP 5D-3 F18 (USA 210),2009-057A,2026-06-11T16:42:09.150336,14.14893754,.0009842,98.9035,143.4770,266.9953,93.0093,0,U,35951,999,85881,.14487E-3,.235E-5,0
EWS-G2 (GOES 15),2010-008A,2026-06-11T17:41:48.430176,1.00275517,.0005392,1.2621,82.9439,40.5950,105.6386,0,U,36411,999,5958,0,.34E-6,0
COMS 1,2010-032A,2026-06-03T23:47:39.107040,1.00270643,.0001016,4.7750,75.5286,4.5847,297.3769,0,U,36744,999,5095,0,-.334E-5,0
FENGYUN 3B,2010-059A,2026-06-11T17:26:16.171584,14.14839233,.0021605,98.9625,208.7180,199.6826,270.1752,0,U,37214,999,80665,-.11433E-4,-.67E-6,0
SUOMI NPP,2011-061A,2026-06-11T16:50:23.098272,14.19516263,.0001836,98.7954,103.6152,19.1642,340.9603,0,U,37849,999,75766,.42486E-4,.45E-6,0
METEOSAT-10 (MSG-3),2012-035B,2026-06-11T08:06:50.289120,1.00275943,.0001465,4.6571,61.0428,331.4803,349.1316,0,U,38552,999,5079,0,.1E-6,0
METOP-B,2012-049A,2026-06-11T16:46:42.180384,14.21431239,.0002565,98.6506,214.3076,32.8216,327.3121,0,U,38771,999,71248,.59179E-4,.86E-6,0
INSAT-3D,2013-038B,2026-06-11T17:16:54.607872,1.00271907,.0000636,1.9112,82.6075,312.4002,253.8060,0,U,39216,999,4702,0,-.323E-5,0
FENGYUN 3C,2013-052A,2026-06-11T17:50:21.170112,14.15753860,.0015514,98.4976,136.8682,42.5640,317.6734,0,U,39260,999,65779,.60414E-4,.77E-6,0
METEOR-M 2,2014-037A,2026-06-11T17:24:49.138272,14.21458521,.0006944,98.5108,138.6571,58.0327,302.1525,0,U,40069,999,61854,-.1331E-3,-.333E-5,0
HIMAWARI-8,2014-060A,2026-06-11T17:20:09.298176,1.00269580,.000073,0.0146,329.5501,141.7884,189.4217,0,U,40267,999,4270,0,-.259E-5,0
FENGYUN 2G,2014-090A,2026-06-11T17:08:25.423296,1.00275098,.0003761,5.6237,72.8834,152.6301,31.2983,0,U,40367,999,4194,0,-.289E-5,0
METEOSAT-11 (MSG-4),2015-034A,2026-06-11T16:42:47.255328,1.00278631,.0001744,3.1883,71.1420,7.6014,81.5005,0,U,40732,999,716,0,.79E-6,0
ELEKTRO-L 2,2015-074A,2026-06-10T23:29:22.228800,1.00271247,.00008138,6.6771,70.6006,270.8986,255.6834,0,U,41105,999,3844,0,-.103E-5,0
SENTINEL-3A,2016-011A,2026-06-11T16:13:52.587840,14.26738441,.0001377,98.6249,230.1389,103.4347,256.6987,0,U,41335,999,53727,.51276E-4,.8E-6,0
INSAT-3DR,2016-054A,2026-06-11T11:53:04.593120,1.00270275,.0010567,0.0908,87.1653,186.8122,238.1118,0,U,41752,999,3576,0,-.6E-6,0
HIMAWARI-9,2016-064A,2026-06-11T17:20:09.298176,1.00271004,.0000786,0.0483,150.8117,345.7408,164.3304,0,U,41836,999,3515,0,-.258E-5,0
GOES 16,2016-071A,2026-06-11T16:10:12.877824,1.00270209,.0000269,0.3260,85.5664,302.7889,9.5344,0,U,41866,999,3504,0,-.74E-6,0
FENGYUN 4A,2016-077A,2026-06-11T17:15:24.751872,1.00271838,.0008532,2.3075,80.3541,151.8402,50.5055,0,U,41882,999,3487,0,-.341E-5,0
CYGFM05,2016-078A,2026-06-11T15:55:53.238432,15.56428769,.0006776,34.9572,297.1583,93.9332,266.2167,0,U,41884,999,52789,.30903E-3,.22604E-3,0
CYGFM04,2016-078B,2026-06-11T12:33:59.378688,15.61202378,.0006085,34.9326,266.0600,140.2617,219.8554,0,U,41885,999,52811,.34199E-3,.3003E-3,0
CYGFM02,2016-078C,2026-06-11T12:50:28.436640,15.64140533,.000707,34.9406,260.6830,141.7664,218.3565,0,U,41886,999,52828,.34079E-3,.33609E-3,0
CYGFM01,2016-078D,2026-06-11T15:43:05.259072,15.57096635,.0006567,34.9403,298.3195,86.8683,273.2792,0,U,41887,999,52784,.31369E-3,.2353E-3,0
CYGFM08,2016-078E,2026-06-11T14:58:19.605792,15.59731170,.0007813,34.9433,278.2499,121.6627,238.4861,0,U,41888,999,52810,.33436E-3,.27747E-3,0
CYGFM07,2016-078G,2026-06-11T12:27:49.971168,15.59825422,.0006376,34.9452,267.2924,139.1708,220.9495,0,U,41890,999,52811,.30112E-3,.25052E-3,0
CYGFM03,2016-078H,2026-06-11T11:46:02.301024,15.59818699,.0005939,34.9400,269.4243,125.5783,234.5496,0,U,41891,999,52808,.32628E-3,.27148E-3,0
